CTC2_L_00136001-01
1 75642U 25384J   26037.47791667  .00000000  00000+0  00000-0 0  9990
2 75642  95.0000   0.0000 0000000   0.0000   0.0000 13.03091717    13
CTC2_L_00136001-02
1 75643U 25498ES  26037.47791667  .00000000  00000+0  00000-0 0  9997
2 75643  95.0000   0.0000 0000000   0.0000  90.0000 13.03091717    13
CTC2_L_00136001-03
1 75644U 26896WZ  26037.47791667  .00000000  00000+0  00000-0 0  9991
2 75644  95.0000   0.0000 0000000   0.0000 180.0000 13.03091717    14
CTC2_L_00136001-04
1 75645U 24334O   26037.47791667  .00000000  00000+0  00000-0 0  9997
2 75645  95.0000   0.0000 0000000   0.0000 270.0000 13.03091717    15
CTC2_L_00136002-01
1 75646U 26368VB  26037.47791667  .00000000  00000+0  00000-0 0  9997
2 75646  95.0000  12.0000 0000000   0.0000  12.0000 13.03091717    13
CTC2_L_00136002-02
1 75647U 26757GQ  26037.47791667  .00000000  00000+0  00000-0 0  9990
2 75647  95.0000  12.0000 0000000   0.0000 102.0000 13.03091717    14
CTC2_L_00136002-03
1 75648U 26658XC  26037.47791667  .00000000  00000+0  00000-0 0  9991
2 75648  95.0000  12.0000 0000000   0.0000 192.0000 13.03091717    14
CTC2_L_00136002-04
1 75649U 24018SL  26037.47791667  .00000000  00000+0  00000-0 0  9990
2 75649  95.0000  12.0000 0000000   0.0000 282.0000 13.03091717    15
CTC2_L_00136003-01
1 75650U 25306CR  26037.47791667  .00000000  00000+0  00000-0 0  9993
2 75650  95.0000  24.0000 0000000   0.0000  24.0000 13.03091717    14
CTC2_L_00136003-02
1 75651U 22260NZ  26037.47791667  .00000000  00000+0  00000-0 0  9990
2 75651  95.0000  24.0000 0000000   0.0000 114.0000 13.03091717    15
CTC2_L_00136003-03
1 75652U 26125BN  26037.47791667  .00000000  00000+0  00000-0 0  9995
2 75652  95.0000  24.0000 0000000   0.0000 204.0000 13.03091717    16
CTC2_L_00136003-04
1 75653U 24981IK  26037.47791667  .00000000  00000+0  00000-0 0  9994
2 75653  95.0000  24.0000 0000000   0.0000 294.0000 13.03091717    16
CTC2_L_00136004-01
1 75654U 24051MV  26037.47791667  .00000000  00000+0  00000-0 0  9993
2 75654  95.0000  36.0000 0000000   0.0000  36.0000 13.03091717    14
CTC2_L_00136004-02
1 75655U 22520MU  26037.47791667  .00000000  00000+0  00000-0 0  9993
2 75655  95.0000  36.0000 0000000   0.0000 126.0000 13.03091717    15
CTC2_L_00136004-03
1 75656U 23281JW  26037.47791667  .00000000  00000+0  00000-0 0  9999
2 75656  95.0000  36.0000 0000000   0.0000 216.0000 13.03091717    16
CTC2_L_00136004-04
1 75657U 24901IQ  26037.47791667  .00000000  00000+0  00000-0 0  9990
2 75657  95.0000  36.0000 0000000   0.0000 306.0000 13.03091717    17
CTC2_L_00136005-01
1 75658U 25237GY  26037.47791667  .00000000  00000+0  00000-0 0  9994
2 75658  95.0000  48.0000 0000000   0.0000  48.0000 13.03091717    14
CTC2_L_00136005-02
1 75659U 26256AO  26037.47791667  .00000000  00000+0  00000-0 0  9997
2 75659  95.0000  48.0000 0000000   0.0000 138.0000 13.03091717    15
CTC2_L_00136005-03
1 75660U 26775QO  26037.47791667  .00000000  00000+0  00000-0 0  9995
2 75660  95.0000  48.0000 0000000   0.0000 228.0000 13.03091717    17
CTC2_L_00136005-04
1 75661U 23874M   26037.47791667  .00000000  00000+0  00000-0 0  9993
2 75661  95.0000  48.0000 0000000   0.0000 318.0000 13.03091717    18
CTC2_L_00136006-01
1 75662U 24104VH  26037.47791667  .00000000  00000+0  00000-0 0  9991
2 75662  95.0000  60.0000 0000000   0.0000  60.0000 13.03091717    17
CTC2_L_00136006-02
1 75663U 25532DU  26037.47791667  .00000000  00000+0  00000-0 0  9998
2 75663  95.0000  60.0000 0000000   0.0000 150.0000 13.03091717    18
CTC2_L_00136006-03
1 75664U 23848KK  26037.47791667  .00000000  00000+0  00000-0 0  9997
2 75664  95.0000  60.0000 0000000   0.0000 240.0000 13.03091717    19
CTC2_L_00136006-04
1 75665U 23584LP  26037.47791667  .00000000  00000+0  00000-0 0  9995
2 75665  95.0000  60.0000 0000000   0.0000 330.0000 13.03091717    10
CTC2_L_00136007-01
1 75666U 26712LP  26037.47791667  .00000000  00000+0  00000-0 0  9992
2 75666  95.0000  72.0000 0000000   0.0000  72.0000 13.03091717    17
CTC2_L_00136007-02
1 75667U 25826YD  26037.47791667  .00000000  00000+0  00000-0 0  9998
2 75667  95.0000  72.0000 0000000   0.0000 162.0000 13.03091717    18
CTC2_L_00136007-03
1 75668U 23712GA  26037.47791667  .00000000  00000+0  00000-0 0  9991
2 75668  95.0000  72.0000 0000000   0.0000 252.0000 13.03091717    19
CTC2_L_00136007-04
1 75669U 25402GD  26037.47791667  .00000000  00000+0  00000-0 0  9990
2 75669  95.0000  72.0000 0000000   0.0000 342.0000 13.03091717    10
CTC2_L_00136008-01
1 75670U 22467JN  26037.47791667  .00000000  00000+0  00000-0 0  9990
2 75670  95.0000  84.0000 0000000   0.0000  84.0000 13.03091717    18
CTC2_L_00136008-02
1 75671U 22387XU  26037.47791667  .00000000  00000+0  00000-0 0  9992
2 75671  95.0000  84.0000 0000000   0.0000 174.0000 13.03091717    19
CTC2_L_00136008-03
1 75672U 23522DY  26037.47791667  .00000000  00000+0  00000-0 0  9995
2 75672  95.0000  84.0000 0000000   0.0000 264.0000 13.03091717    10
CTC2_L_00136008-04
1 75673U 23847LG  26037.47791667  .00000000  00000+0  00000-0 0  9996
2 75673  95.0000  84.0000 0000000   0.0000 354.0000 13.03091717    11
CTC2_L_00136009-01
1 75674U 24967RK  26037.47791667  .00000000  00000+0  00000-0 0  9991
2 75674  95.0000  96.0000 0000000   0.0000  96.0000 13.03091717    18
CTC2_L_00136009-02
1 75675U 22913EO  26037.47791667  .00000000  00000+0  00000-0 0  9991
2 75675  95.0000  96.0000 0000000   0.0000 186.0000 13.03091717    19
CTC2_L_00136009-03
1 75676U 26691LK  26037.47791667  .00000000  00000+0  00000-0 0  9999
2 75676  95.0000  96.0000 0000000   0.0000 276.0000 13.03091717    10
CTC2_L_00136009-04
1 75677U 22142K   26037.47791667  .00000000  00000+0  00000-0 0  9997
2 75677  95.0000  96.0000 0000000   0.0000   6.0000 13.03091717    12
CTC2_L_00136010-01
1 75678U 24045VV  26037.47791667  .00000000  00000+0  00000-0 0  9992
2 75678  95.0000 108.0000 0000000   0.0000 108.0000 13.03091717    10
CTC2_L_00136010-02
1 75679U 24971KU  26037.47791667  .00000000  00000+0  00000-0 0  9991
2 75679  95.0000 108.0000 0000000   0.0000 198.0000 13.03091717    10
CTC2_L_00136010-03
1 75680U 22418GZ  26037.47791667  .00000000  00000+0  00000-0 0  9997
2 75680  95.0000 108.0000 0000000   0.0000 288.0000 13.03091717    12
CTC2_L_00136010-04
1 75681U 24679YV  26037.47791667  .00000000  00000+0  00000-0 0  9999
2 75681  95.0000 108.0000 0000000   0.0000  18.0000 13.03091717    14
CTC2_L_00136011-01
1 75682U 25830IM  26037.47791667  .00000000  00000+0  00000-0 0  9990
2 75682  95.0000 120.0000 0000000   0.0000 120.0000 13.03091717    13
CTC2_L_00136011-02
1 75683U 23312Q   26037.47791667  .00000000  00000+0  00000-0 0  9994
2 75683  95.0000 120.0000 0000000   0.0000 210.0000 13.03091717    14
CTC2_L_00136011-03
1 75684U 24450UI  26037.47791667  .00000000  00000+0  00000-0 0  9999
2 75684  95.0000 120.0000 0000000   0.0000 300.0000 13.03091717    15
CTC2_L_00136011-04
1 75685U 24972HA  26037.47791667  .00000000  00000+0  00000-0 0  9999
2 75685  95.0000 120.0000 0000000   0.0000  30.0000 13.03091717    16
CTC2_L_00136012-01
1 75686U 23476IV  26037.47791667  .00000000  00000+0  00000-0 0  9998
2 75686  95.0000 132.0000 0000000   0.0000 132.0000 13.03091717    13
CTC2_L_00136012-02
1 75687U 25477BC  26037.47791667  .00000000  00000+0  00000-0 0  9992
2 75687  95.0000 132.0000 0000000   0.0000 222.0000 13.03091717    14
CTC2_L_00136012-03
1 75688U 22337TJ  26037.47791667  .00000000  00000+0  00000-0 0  9995
2 75688  95.0000 132.0000 0000000   0.0000 312.0000 13.03091717    15
CTC2_L_00136012-04
1 75689U 23080KA  26037.47791667  .00000000  00000+0  00000-0 0  9992
2 75689  95.0000 132.0000 0000000   0.0000  42.0000 13.03091717    16
CTC2_L_00136013-01
1 75690U 23365UZ  26037.47791667  .00000000  00000+0  00000-0 0  9990
2 75690  95.0000 144.0000 0000000   0.0000 144.0000 13.03091717    14
CTC2_L_00136013-02
1 75691U 22241ML  26037.47791667  .00000000  00000+0  00000-0 0  9993
2 75691  95.0000 144.0000 0000000   0.0000 234.0000 13.03091717    15
CTC2_L_00136013-03
1 75692U 24770JD  26037.47791667  .00000000  00000+0  00000-0 0  9993
2 75692  95.0000 144.0000 0000000   0.0000 324.0000 13.03091717    16
CTC2_L_00136013-04
1 75693U 24741JZ  26037.47791667  .00000000  00000+0  00000-0 0  9992
2 75693  95.0000 144.0000 0000000   0.0000  54.0000 13.03091717    17
CTC2_L_00136014-01
1 75694U 23158UA  26037.47791667  .00000000  00000+0  00000-0 0  9994
2 75694  95.0000 156.0000 0000000   0.0000 156.0000 13.03091717    14
CTC2_L_00136014-02
1 75695U 26483WB  26037.47791667  .00000000  00000+0  00000-0 0  9999
2 75695  95.0000 156.0000 0000000   0.0000 246.0000 13.03091717    15
CTC2_L_00136014-03
1 75696U 24004VV  26037.47791667  .00000000  00000+0  00000-0 0  9997
2 75696  95.0000 156.0000 0000000   0.0000 336.0000 13.03091717    16
CTC2_L_00136014-04
1 75697U 25287JL  26037.47791667  .00000000  00000+0  00000-0 0  9992
2 75697  95.0000 156.0000 0000000   0.0000  66.0000 13.03091717    17
CTC2_L_00136015-01
1 75698U 22623UJ  26037.47791667  .00000000  00000+0  00000-0 0  9994
2 75698  95.0000 168.0000 0000000   0.0000 168.0000 13.03091717    14
CTC2_L_00136015-02
1 75699U 25580UF  26037.47791667  .00000000  00000+0  00000-0 0  9990
2 75699  95.0000 168.0000 0000000   0.0000 258.0000 13.03091717    15
CTC2_L_00136015-03
1 75700U 24063DP  26037.47791667  .00000000  00000+0  00000-0 0  9998
2 75700  95.0000 168.0000 0000000   0.0000 348.0000 13.03091717    18
CTC2_L_00136015-04
1 75701U 24294NG  26037.47791667  .00000000  00000+0  00000-0 0  9995
2 75701  95.0000 168.0000 0000000   0.0000  78.0000 13.03091717    19
CTC2_L_00136016-01
1 75702U 24495XJ  26037.47791667  .00000000  00000+0  00000-0 0  9999
2 75702  95.0000 180.0000 0000000   0.0000 180.0000 13.03091717    18
CTC2_L_00136016-02
1 75703U 24912UB  26037.47791667  .00000000  00000+0  00000-0 0  9994
2 75703  95.0000 180.0000 0000000   0.0000 270.0000 13.03091717    19
